OBJECT_NAME,OBJECT_ID,EPOCH,MEAN_MOTION,ECCENTRICITY,INCLINATION,RA_OF_ASC_NODE,ARG_OF_PERICENTER,MEAN_ANOMALY,EPHEMERIS_TYPE,CLASSIFICATION_TYPE,NORAD_CAT_ID,ELEMENT_SET_NO,REV_AT_EPOCH,BSTAR,MEAN_MOTION_DOT,MEAN_MOTION_DDOT
KOREASAT 5 (MUGUNGWHA 5),2006-034A,2026-07-20T13:03:38.941344,1.00271661,.00018321,1.8692,82.5757,79.2111,85.4940,0,U,29349,999,4165,0,-.36E-5,0
DIRECTV 9S,2006-043A,2026-07-20T12:08:38.594400,1.00271728,.00051234,2.5047,80.5024,33.8491,264.8830,0,U,29494,999,5171,0,-.116E-5,0
OPTUS D1,2006-043B,2026-07-20T13:11:38.622912,1.00272227,.00036959,3.1186,79.2476,36.6852,172.2583,0,U,29495,999,7245,0,-.187E-5,0
BADR-4,2006-051A,2026-07-20T11:34:52.237056,1.00274548,.0004945,2.0887,80.7584,35.0340,30.6466,0,U,29526,999,5160,0,.153E-5,0
WILDBLUE-1,2006-054A,2026-07-20T10:53:26.210112,1.00272320,.00015046,2.8869,80.0660,33.8678,236.4375,0,U,29643,999,5412,0,-.52E-6,0
SKYNET 5A,2007-007B,2026-07-20T14:51:14.969664,1.00272787,.00034305,5.3820,73.3274,49.0984,133.9927,0,U,30794,999,7103,0,-.276E-5,0
ANIK F3,2007-009A,2026-07-20T11:44:38.586336,1.00272758,.00026743,1.2817,83.4579,35.4596,236.7835,0,U,31102,999,4689,0,-.3E-7,0
ASTRA 1L,2007-016A,2026-07-20T07:52:43.340160,1.00270863,.00054334,1.4054,81.3123,36.9698,273.4812,0,U,31306,999,4531,0,-.187E-5,0
GALAXY 17 (G-17),2007-016B,2026-07-20T11:00:48.004416,1.00275796,.00036314,3.0534,79.4804,33.9969,264.9336,0,U,31307,999,7013,0,-.21E-5,0
INTELSAT 11 (IS-11),2007-044B,2026-07-20T09:36:40.869792,0.99053138,.00044471,3.6499,78.2667,99.1031,244.7297,0,U,32253,999,6877,0,-.237E-5,0
WGS F1 (USA 195),2007-046A,2026-07-20T11:12:54.344160,1.00271234,.00001871,0.0161,79.0972,76.1968,268.6510,0,U,32258,999,5266,0,-.269E-5,0
SKYNET 5B,2007-056B,2026-07-20T06:24:18.074304,1.00269695,.0003614,5.3327,73.1059,42.9939,303.1219,0,U,32294,999,6852,0,.135E-5,0
ASTRA 4A,2007-057A,2026-07-20T09:43:17.736096,1.00274205,.00026586,0.0600,271.3067,213.5418,323.9542,0,U,32299,999,5198,0,.31E-6,0
HORIZONS-2,2007-063B,2026-07-20T11:04:02.692992,1.00272565,.0003642,2.6858,80.2195,19.5120,290.7123,0,U,32388,999,6814,0,-.256E-5,0
THURAYA-3,2008-001A,2026-07-20T03:09:54.560736,1.00273646,.00023272,6.0443,35.8282,79.7869,293.4772,0,U,32404,999,6782,0,.3E-7,0
THOR 5,2008-006A,2026-07-20T07:59:35.181312,1.00273361,.00025303,0.0597,250.1306,234.9397,292.1842,0,U,32487,999,6764,0,-.11E-6,0
AMC-14,2008-011A,2026-07-20T00:27:46.617984,1.00420288,.00390373,24.0481,20.1226,8.5687,357.3671,0,U,32708,999,6850,0,-.209E-5,0
DIRECTV 11,2008-013A,2026-07-20T10:47:26.598624,1.00271481,.00001159,0.0179,227.3612,222.3801,271.1466,0,U,32729,999,4592,0,-.127E-5,0
ICO G1,2008-016A,2026-07-20T11:09:50.478912,1.00272515,.00022043,5.5316,36.0305,76.5167,260.3142,0,U,32763,999,6687,0,-.176E-5,0
VINASAT-1,2008-018A,2026-07-20T12:33:38.670336,1.00271111,.00017495,0.0388,272.9467,216.1090,129.5827,0,U,32767,999,6692,0,-.329E-5,0
STAR ONE C2,2008-018B,2026-07-20T09:23:57.090336,1.00267684,.00026503,1.3232,82.1499,26.9835,265.0248,0,U,32768,999,6698,0,-.279E-5,0
AMOS-3,2008-022A,2026-07-20T03:10:09.538176,1.00490081,.00031814,0.5382,85.7599,82.1518,241.6592,0,U,32794,999,8266,0,-.34E-6,0
GALAXY 18 (G-18),2008-024A,2026-07-20T11:44:38.586336,1.00273793,.00029342,0.0099,14.8202,106.1251,230.4660,0,U,32951,999,4618,0,.24E-6,0
ZHONGXING-9,2008-028A,2026-07-20T16:59:25.456992,1.00273219,.0003527,0.8523,84.9272,33.5535,167.2114,0,U,33051,999,6637,0,-.25E-5,0
SKYNET 5C,2008-030A,2026-07-20T09:37:18.310368,1.00272511,.00043381,3.8718,76.6462,48.6195,299.4491,0,U,33055,999,6628,0,-.144E-5,0
TURKSAT 3A,2008-030B,2026-07-20T11:36:52.046208,1.00273481,.00050087,0.0483,79.4226,20.1083,54.9184,0,U,33056,999,5269,0,.145E-5,0
ECHOSTAR 11,2008-035A,2026-07-20T12:08:38.594400,1.00271866,.00023859,1.0894,83.8037,27.3915,259.4309,0,U,33207,999,5154,0,-.6E-6,0
SUPERBIRD-C2,2008-038A,2026-07-20T12:33:38.670336,1.00271182,.00063917,2.4449,80.8502,40.0311,141.8249,0,U,33274,999,10606,0,-.309E-5,0
INMARSAT 4-F3,2008-039A,2026-07-20T06:51:12.517920,1.00272233,.00026055,4.3211,31.7027,93.9577,177.2181,0,U,33278,999,4687,0,-.144E-5,0
NIMIQ 4,2008-044A,2026-07-20T11:01:40.419840,1.00270377,.0001808,0.0215,56.6992,55.0534,269.8894,0,U,33373,999,6531,0,-.221E-5,0
GALAXY 19 (G-19),2008-045A,2026-07-20T10:57:25.826688,1.00270979,.00025471,0.0652,254.5661,236.6857,234.3285,0,U,33376,999,6523,0,-.14E-5,0
ASTRA 1M,2008-057A,2026-07-20T08:05:19.631328,1.00272350,.00046859,0.3797,82.8579,43.4384,312.5094,0,U,33436,999,4606,0,.119E-5,0
