KOREASAT 5 (MUGUNGWHA 5)
1 29349U 06034A   26201.54420071 -.00000360  00000+0  00000+0 0  9992
2 29349   1.8692  82.5757 0001832  79.2111  85.4940  1.00271661 41654
DIRECTV 9S              
1 29494U 06043A   26201.50600225 -.00000116  00000+0  00000+0 0  9999
2 29494   2.5047  80.5024 0005123  33.8491 264.8830  1.00271728 51719
OPTUS D1                
1 29495U 06043B   26201.54975258 -.00000187  00000+0  00000+0 0  9993
2 29495   3.1186  79.2476 0003695  36.6852 172.2583  1.00272227 72457
BADR-4                  
1 29526U 06051A   26201.48254904  .00000153  00000+0  00000+0 0  9990
2 29526   2.0887  80.7584 0004945  35.0340  30.6466  1.00274548 51608
WILDBLUE-1              
1 29643U 06054A   26201.45377558 -.00000052  00000+0  00000+0 0  9990
2 29643   2.8869  80.0660 0001504  33.8678 236.4375  1.00272320 54123
SKYNET 5A               
1 30794U 07007B   26201.61892326 -.00000276  00000+0  00000+0 0  9999
2 30794   5.3820  73.3274 0003430  49.0984 133.9927  1.00272787 71032
ANIK F3                 
1 31102U 07009A   26201.48933549 -.00000003  00000+0  00000+0 0  9991
2 31102   1.2817  83.4579 0002674  35.4596 236.7835  1.00272758 46898
ASTRA 1L                
1 31306U 07016A   26201.32827940 -.00000187  00000+0  00000+0 0  9998
2 31306   1.4054  81.3123 0005433  36.9698 273.4812  1.00270863 45310
GALAXY 17 (G-17)        
1 31307U 07016B   26201.45888894 -.00000210  00000+0  00000+0 0  9995
2 31307   3.0534  79.4804 0003631  33.9969 264.9336  1.00275796 70136
INTELSAT 11 (IS-11)     
1 32253U 07044B   26201.40047303 -.00000237  00000+0  00000+0 0  9993
2 32253   3.6499  78.2667 0004447  99.1031 244.7297  0.99053138 68777
WGS F1 (USA 195)        
1 32258U 07046A   26201.46729565 -.00000269  00000+0  00000+0 0  9998
2 32258   0.0161  79.0972 0000187  76.1968 268.6510  1.00271234 52664
SKYNET 5B               
1 32294U 07056B   26201.26687586  .00000135  00000+0  00000+0 0  9994
2 32294   5.3327  73.1059 0003614  42.9939 303.1219  1.00269695 68525
ASTRA 4A                
1 32299U 07057A   26201.40506639  .00000031  00000+0  00000+0 0  9990
2 32299   0.0600 271.3067 0002658 213.5418 323.9542  1.00274205 51986
HORIZONS-2              
1 32388U 07063B   26201.46114228 -.00000256  00000+0  00000+0 0  9991
2 32388   2.6858  80.2195 0003642  19.5120 290.7123  1.00272565 68144
THURAYA-3               
1 32404U 08001A   26201.13188149  .00000003  00000+0  00000+0 0  9999
2 32404   6.0443  35.8282 0002327  79.7869 293.4772  1.00273646 67826
THOR 5                  
1 32487U 08006A   26201.33304608 -.00000011  00000+0  00000+0 0  9997
2 32487   0.0597 250.1306 0002530 234.9397 292.1842  1.00273361 67645
AMC-14                  
1 32708U 08011A   26201.01928956 -.00000209  00000+0  00000+0 0  9991
2 32708  24.0481  20.1226 0039037   8.5687 357.3671  1.00420288 68506
DIRECTV 11              
1 32729U 08013A   26201.44961341 -.00000127  00000+0  00000+0 0  9997
2 32729   0.0179 227.3612 0000115 222.3801 271.1466  1.00271481 45921
ICO G1                  
1 32763U 08016A   26201.46516758 -.00000176  00000+0  00000+0 0  9992
2 32763   5.5316  36.0305 0002204  76.5167 260.3142  1.00272515 66878
VINASAT-1               
1 32767U 08018A   26201.52336424 -.00000329  00000+0  00000+0 0  9995
2 32767   0.0388 272.9467 0001749 216.1090 129.5827  1.00271111 66924
STAR ONE C2             
1 32768U 08018B   26201.39163299 -.00000279  00000+0  00000+0 0  9993
2 32768   1.3232  82.1499 0002650  26.9835 265.0248  1.00267684 66988
AMOS-3                  
1 32794U 08022A   26201.13205484 -.00000034  00000+0  00000+0 0  9991
2 32794   0.5382  85.7599 0003181  82.1518 241.6592  1.00490081 82660
GALAXY 18 (G-18)        
1 32951U 08024A   26201.48933549  .00000024  00000+0  00000+0 0  9994
2 32951   0.0099  14.8202 0002934 106.1251 230.4660  1.00273793 46183
ZHONGXING-9             
1 33051U 08028A   26201.70793353 -.00000250  00000+0  00000+0 0  9994
2 33051   0.8523  84.9272 0003527  33.5535 167.2114  1.00273219 66374
SKYNET 5C               
1 33055U 08030A   26201.40090637 -.00000144  00000+0  00000+0 0  9995
2 33055   3.8718  76.6462 0004338  48.6195 299.4491  1.00272511 66286
TURKSAT 3A              
1 33056U 08030B   26201.48393572  .00000145  00000+0  00000+0 0  9998
2 33056   0.0483  79.4226 0005008  20.1083  54.9184  1.00273481 52690
ECHOSTAR 11             
1 33207U 08035A   26201.50600225 -.00000060  00000+0  00000+0 0  9997
2 33207   1.0894  83.8037 0002385  27.3915 259.4309  1.00271866 51541
SUPERBIRD-C2            
1 33274U 08038A   26201.52336424 -.00000309  00000+0  00000+0 0  9999
2 33274   2.4449  80.8502 0006391  40.0311 141.8249  1.00271182106069
INMARSAT 4-F3           
1 33278U 08039A   26201.28556155 -.00000144  00000+0  00000+0 0  9999
2 33278   4.3211  31.7027 0002605  93.9577 177.2181  1.00272233 46871
NIMIQ 4                 
1 33373U 08044A   26201.45949560 -.00000221  00000+0  00000+0 0  9992
2 33373   0.0215  56.6992 0001808  55.0534 269.8894  1.00270377 65313
GALAXY 19 (G-19)        
1 33376U 08045A   26201.45654892 -.00000140  00000+0  00000+0 0  9997
2 33376   0.0652 254.5661 0002547 236.6857 234.3285  1.00270979 65239
ASTRA 1M                
1 33436U 08057A   26201.33703277  .00000119  00000+0  00000+0 0  9991
2 33436   0.3797  82.8579 0004685  43.4384 312.5094  1.00272350 46065
